start=new Date('2021-11-02T00:00:00.000Z').valueOf();
sats=[{"MEAN_MOTION_DDOT":"0.0000000000000","ELEMENT_SET_NO":"999","ECCENTRICITY":"0.00013490","MEAN_MOTION_DOT":"0.00001603","RCS_SIZE":"LARGE","BSTAR":"0.00012650000000","APOAPSIS":"548.146","GP_ID":"188693802","EPHEMERIS_TYPE":"0","ARG_OF_PERICENTER":"69.5041","DECAY_DATE":null,"MEAN_ELEMENT_THEORY":"SGP4","COUNTRY_CODE":"US","LAUNCH_DATE":"2021-01-20","REF_FRAME":"TEME","PERIAPSIS":"546.277","OBJECT_ID":"2021-005AM","MEAN_ANOMALY":"290.6093","SEMIMAJOR_AXIS":"6925.347","TLE_LINE1":"1 47384U 21005AM  21305.74854703  .00001603  00000-0  12650-3 0  9990","CENTER_NAME":"EARTH","TIME_SYSTEM":"UTC","PERIOD":"95.592","REV_AT_EPOCH":"4397","TLE_LINE2":"2 47384  53.0558 324.6589 0001349  69.5041 290.6093 15.06400653 43975","EPOCH":"2021-11-01T17:57:54.463392","OBJECT_TYPE":"PAYLOAD","OBJECT_NAME":"STARLINK-2104","FILE":"3196819","RA_OF_ASC_NODE":"324.6589","CLASSIFICATION_TYPE":"U","SITE":"AFETR","INCLINATION":"53.0558","NORAD_CAT_ID":"47384","MEAN_MOTION":"15.06400653"},{"COUNTRY_CODE":"US","DECAY_DATE":null,"MEAN_ELEMENT_THEORY":"SGP4","ARG_OF_PERICENTER":"74.8993","EPHEMERIS_TYPE":"0","GP_ID":"188694052","APOAPSIS":"548.081","BSTAR":"0.00001152000000","RCS_SIZE":"LARGE","MEAN_MOTION_DOT":"-0.00000110","ECCENTRICITY":"0.00012610","ELEMENT_SET_NO":"999","MEAN_MOTION_DDOT":"0.0000000000000","MEAN_MOTION":"15.06401999","NORAD_CAT_ID":"47385","INCLINATION":"53.0552","SITE":"AFETR","CLASSIFICATION_TYPE":"U","RA_OF_ASC_NODE":"324.5692","FILE":"3196819","OBJECT_NAME":"STARLINK-2105","OBJECT_TYPE":"PAYLOAD","EPOCH":"2021-11-01T18:25:48.174816","TLE_LINE2":"2 47385  53.0552 324.5692 0001261  74.8993 285.2136 15.06401999 43974","PERIOD":"95.592","REV_AT_EPOCH":"4397","CENTER_NAME":"EARTH","TLE_LINE1":"1 47385U 21005AN  21305.76791869 -.00000110  00000-0  11520-4 0  9995","SEMIMAJOR_AXIS":"6925.342","TIME_SYSTEM":"UTC","OBJECT_ID":"2021-005AN","MEAN_ANOMALY":"285.2136","REF_FRAME":"TEME","PERIAPSIS":"546.334","LAUNCH_DATE":"2021-01-20"},{"MEAN_ELEMENT_THEORY":"SGP4","DECAY_DATE":null,"ARG_OF_PERICENTER":"73.6597","COUNTRY_CODE":"US","APOAPSIS":"548.226","GP_ID":"188695304","EPHEMERIS_TYPE":"0","ECCENTRICITY":"0.00015220","MEAN_MOTION_DOT":"0.00006072","BSTAR":"0.00042605000000","RCS_SIZE":"LARGE","MEAN_MOTION_DDOT":"0.0000000000000","ELEMENT_SET_NO":"999","SITE":"AFETR","CLASSIFICATION_TYPE":"U","INCLINATION":"53.0556","NORAD_CAT_ID":"47386","MEAN_MOTION":"15.06413684","OBJECT_NAME":"STARLINK-2106","OBJECT_TYPE":"PAYLOAD","FILE":"3196819","RA_OF_ASC_NODE":"324.4329","PERIOD":"95.591","REV_AT_EPOCH":"4398","TLE_LINE2":"2 47386  53.0556 324.4329 0001522  73.6597 286.4559 15.06413684 43989","EPOCH":"2021-11-01T19:08:15.756576","LAUNCH_DATE":"2021-01-20","MEAN_ANOMALY":"286.4559","OBJECT_ID":"2021-005AP","REF_FRAME":"TEME","PERIAPSIS":"546.118","TLE_LINE1":"1 47386U 21005AP  21305.79740459  .00006072  00000-0  42605-3 0  9997","TIME_SYSTEM":"UTC","SEMIMAJOR_AXIS":"6925.307","CENTER_NAME":"EARTH"},{"EPOCH":"2021-11-01T20:23:54.570624","PERIOD":"95.592","REV_AT_EPOCH":"4356","TLE_LINE2":"2 47387  53.0577 354.2004 0001379  84.2053 275.9093 15.06396465 43566","MEAN_ANOMALY":"275.9093","OBJECT_ID":"2021-005AQ","PERIAPSIS":"546.269","REF_FRAME":"TEME","CENTER_NAME":"EARTH","TLE_LINE1":"1 47387U 21005AQ  21305.84993716  .00001293  00000-0  10566-3 0  9991","SEMIMAJOR_AXIS":"6925.359","TIME_SYSTEM":"UTC","LAUNCH_DATE":"2021-01-20","NORAD_CAT_ID":"47387","MEAN_MOTION":"15.06396465","SITE":"AFETR","CLASSIFICATION_TYPE":"U","INCLINATION":"53.0577","RA_OF_ASC_NODE":"354.2004","OBJECT_NAME":"STARLINK-2108","OBJECT_TYPE":"PAYLOAD","FILE":"3196819","BSTAR":"0.00010566000000","RCS_SIZE":"LARGE","ECCENTRICITY":"0.00013790","MEAN_MOTION_DOT":"0.00001293","ELEMENT_SET_NO":"999","MEAN_MOTION_DDOT":"0.0000000000000","COUNTRY_CODE":"US","MEAN_ELEMENT_THEORY":"SGP4","DECAY_DATE":null,"ARG_OF_PERICENTER":"84.2053","EPHEMERIS_TYPE":"0","APOAPSIS":"548.179","GP_ID":"188695054"},{"SEMIMAJOR_AXIS":"6925.357","TLE_LINE1":"1 47388U 21005AR  21305.86468931  .00000606  00000-0  59586-4 0  9993","CENTER_NAME":"EARTH","TIME_SYSTEM":"UTC","MEAN_ANOMALY":"267.9409","OBJECT_ID":"2021-005AR","PERIAPSIS":"546.406","REF_FRAME":"TEME","LAUNCH_DATE":"2021-01-20","EPOCH":"2021-11-01T20:45:09.156384","TLE_LINE2":"2 47388  53.0567 354.1340 0001179  92.1716 267.9409 15.06397234 43567","PERIOD":"95.592","REV_AT_EPOCH":"4356","RA_OF_ASC_NODE":"354.1340","FILE":"3196819","OBJECT_NAME":"STARLINK-2109","OBJECT_TYPE":"PAYLOAD","MEAN_MOTION":"15.06397234","NORAD_CAT_ID":"47388","INCLINATION":"53.0567","SITE":"AFETR","CLASSIFICATION_TYPE":"U","ELEMENT_SET_NO":"999","MEAN_MOTION_DDOT":"0.0000000000000","BSTAR":"0.00005958600000","RCS_SIZE":"LARGE","MEAN_MOTION_DOT":"0.00000606","ECCENTRICITY":"0.00011790","EPHEMERIS_TYPE":"0","GP_ID":"188694303","APOAPSIS":"548.039","COUNTRY_CODE":"US","DECAY_DATE":null,"MEAN_ELEMENT_THEORY":"SGP4","ARG_OF_PERICENTER":"92.1716"},{"DECAY_DATE":null,"MEAN_ELEMENT_THEORY":"SGP4","ARG_OF_PERICENTER":"75.2131","COUNTRY_CODE":"US","GP_ID":"188694553","APOAPSIS":"548.155","EPHEMERIS_TYPE":"0","MEAN_MOTION_DOT":"-0.00000137","ECCENTRICITY":"0.00013310","BSTAR":"0.00000969080000","RCS_SIZE":"LARGE","MEAN_MOTION_DDOT":"0.0000000000000","ELEMENT_SET_NO":"999","INCLINATION":"53.0540","SITE":"AFETR","CLASSIFICATION_TYPE":"U","MEAN_MOTION":"15.06393675","NORAD_CAT_ID":"47389","FILE":"3196819","OBJECT_NAME":"STARLINK-2110","OBJECT_TYPE":"PAYLOAD","RA_OF_ASC_NODE":"334.5101","TLE_LINE2":"2 47389  53.0540 334.5101 0001331  75.2131 284.9005 15.06393675 43835","PERIOD":"95.593","REV_AT_EPOCH":"4383","EPOCH":"2021-11-01T18:40:25.406112","LAUNCH_DATE":"2021-01-20","SEMIMAJOR_AXIS":"6925.368","TLE_LINE1":"1 47389U 21005AS  21305.77807183 -.00000137  00000-0  96908-5 0  9990","TIME_SYSTEM":"UTC","CENTER_NAME":"EARTH","OBJECT_ID":"2021-005AS","MEAN_ANOMALY":"284.9005","PERIAPSIS":"546.311","REF_FRAME":"TEME"},{"EPOCH":"2021-11-01T20:07:59.930976","PERIOD":"95.592","REV_AT_EPOCH":"4356","TLE_LINE2":"2 47390  53.0567 354.2382 0001233  85.6897 274.4233 15.06402636 43566","PERIAPSIS":"546.352","REF_FRAME":"TEME","OBJECT_ID":"2021-005AT","MEAN_ANOMALY":"274.4233","TLE_LINE1":"1 47390U 21005AT  21305.83888809 -.00000791  00000-0 -34229-4 0  9997","CENTER_NAME":"EARTH","SEMIMAJOR_AXIS":"6925.340","TIME_SYSTEM":"UTC","LAUNCH_DATE":"2021-01-20","NORAD_CAT_ID":"47390","MEAN_MOTION":"15.06402636","CLASSIFICATION_TYPE":"U","SITE":"AFETR","INCLINATION":"53.0567","RA_OF_ASC_NODE":"354.2382","OBJECT_TYPE":"PAYLOAD","OBJECT_NAME":"STARLINK-2111","FILE":"3196819","RCS_SIZE":"LARGE","BSTAR":"-0.00003422900000","ECCENTRICITY":"0.00012330","MEAN_MOTION_DOT":"-0.00000791","ELEMENT_SET_NO":"999","MEAN_MOTION_DDOT":"0.0000000000000","COUNTRY_CODE":"US","ARG_OF_PERICENTER":"85.6897","DECAY_DATE":null,"MEAN_ELEMENT_THEORY":"SGP4","EPHEMERIS_TYPE":"0","APOAPSIS":"548.059","GP_ID":"188694804"},{"TLE_LINE1":"1 47391U 21005AU  21305.78170685  .00005234  00000-0  36982-3 0  9990","SEMIMAJOR_AXIS":"6925.288","TIME_SYSTEM":"UTC","CENTER_NAME":"EARTH","MEAN_ANOMALY":"286.9973","OBJECT_ID":"2021-005AU","PERIAPSIS":"545.842","REF_FRAME":"TEME","LAUNCH_DATE":"2021-01-20","EPOCH":"2021-11-01T18:45:39.471840","TLE_LINE2":"2 47391  53.0541 324.4946 0001894  73.1224 286.9973 15.06419631 43970","REV_AT_EPOCH":"4397","PERIOD":"95.591","RA_OF_ASC_NODE":"324.4946","FILE":"3196819","OBJECT_NAME":"STARLINK-2112","OBJECT_TYPE":"PAYLOAD","MEAN_MOTION":"15.06419631","NORAD_CAT_ID":"47391","INCLINATION":"53.0541","SITE":"AFETR","CLASSIFICATION_TYPE":"U","ELEMENT_SET_NO":"999","MEAN_MOTION_DDOT":"0.0000000000000","BSTAR":"0.00036982000000","RCS_SIZE":"LARGE","MEAN_MOTION_DOT":"0.00005234","ECCENTRICITY":"0.00018940","EPHEMERIS_TYPE":"0","GP_ID":"188695555","APOAPSIS":"548.465","COUNTRY_CODE":"US","MEAN_ELEMENT_THEORY":"SGP4","DECAY_DATE":null,"ARG_OF_PERICENTER":"73.1224"},{"EPOCH":"2021-11-01T18:47:02.342400","TLE_LINE2":"2 47392  53.0527 324.4909 0001326  76.8876 283.2260 15.06407320 43978","REV_AT_EPOCH":"4397","PERIOD":"95.592","TLE_LINE1":"1 47392U 21005AV  21305.78266600  .00000676  00000-0  64256-4 0  9995","TIME_SYSTEM":"UTC","SEMIMAJOR_AXIS":"6925.326","CENTER_NAME":"EARTH","REF_FRAME":"TEME","PERIAPSIS":"546.273","OBJECT_ID":"2021-005AV","MEAN_ANOMALY":"283.2260","LAUNCH_DATE":"2021-01-20","MEAN_MOTION":"15.06407320","NORAD_CAT_ID":"47392","INCLINATION":"53.0527","CLASSIFICATION_TYPE":"U","SITE":"AFETR","RA_OF_ASC_NODE":"324.4909","FILE":"3196819","OBJECT_TYPE":"PAYLOAD","OBJECT_NAME":"STARLINK-2113","RCS_SIZE":"LARGE","BSTAR":"0.00006425600000","MEAN_MOTION_DOT":"0.00000676","ECCENTRICITY":"0.00013260","ELEMENT_SET_NO":"999","MEAN_MOTION_DDOT":"0.0000000000000","COUNTRY_CODE":"US","ARG_OF_PERICENTER":"76.8876","MEAN_ELEMENT_THEORY":"SGP4","DECAY_DATE":null,"EPHEMERIS_TYPE":"0","GP_ID":"188693803","APOAPSIS":"548.109"},{"ELEMENT_SET_NO":"999","MEAN_MOTION_DDOT":"0.0000000000000","BSTAR":"0.00018263000000","RCS_SIZE":"LARGE","ECCENTRICITY":"0.00014780","MEAN_MOTION_DOT":"0.00002440","EPHEMERIS_TYPE":"0","APOAPSIS":"548.213","GP_ID":"188694053","COUNTRY_CODE":"US","MEAN_ELEMENT_THEORY":"SGP4","DECAY_DATE":null,"ARG_OF_PERICENTER":"89.4676","OBJECT_ID":"2021-005AW","MEAN_ANOMALY":"270.6482","REF_FRAME":"TEME","PERIAPSIS":"546.166","TLE_LINE1":"1 47393U 21005AW  21305.70846220  .00002440  00000-0  18263-3 0  9997","TIME_SYSTEM":"UTC","SEMIMAJOR_AXIS":"6925.325","CENTER_NAME":"EARTH","LAUNCH_DATE":"2021-01-20","EPOCH":"2021-11-01T17:00:11.134080","PERIOD":"95.592","REV_AT_EPOCH":"4431","TLE_LINE2":"2 47393  53.0465 299.8479 0001478  89.4676 270.6482 15.06407742 44316","RA_OF_ASC_NODE":"299.8479","OBJECT_NAME":"STARLINK-2114","OBJECT_TYPE":"PAYLOAD","FILE":"3196819","NORAD_CAT_ID":"47393","MEAN_MOTION":"15.06407742","SITE":"AFETR","CLASSIFICATION_TYPE":"U","INCLINATION":"53.0465"}];
